#dP2021  2 18  0  0  0.00000000      96 __u+U ITR00 FIT  IAC
## 2145 345600.00000000   900.00000000 59263 0.0000000000000
+  127   C01C02C03C04C05C06C07C08C09C10C11C12C13C14C16C19C20
+        C21C22C23C24C25C26C27C28C29C30C32C33C34C35C36C37C38
+        C39C40C41C42C43C44C45C46C60E01E02E03E04E05E07E08E09
+        E11E12E13E14E15E18E19E21E24E25E26E27E30E31E33E36G01
+        G02G03G04G05G06G07G08G09G10G11G12G13G14G15G16G17G18
+        G19G20G21G22G23G24G25G26G27G28G29G30G31G32J01J02J03
+        J07R01R02R03R04R05R06R07R08R09R10R11R12R13R14R15R16
+        R17R18R19R20R21R22R23R24  0  0  0  0  0  0  0  0  0
++        13 13 13 13 13  9  9 10  9  9  9  9  9  8  9  8  8
++         8  8  8  8  8  8  8  8  8  8  8  8  9  8  9  8  9
++         9  9  8  9  9  9  9  9  0  4  4  4  4  4  4  4  4
++         5  5  4  4  4  5  4  4  4  4  4  4  5  5  5  5  4
++         4  3  4  4  4  4  4  4  4  5  4  4  4  4  4  3  4
++         4  4  4  3  4  4  4  4  4  4  4  4  4  3  9  8  8
++        14  6  5  5  5  6 13  6  6  6 13  7  6  7  6  6  6
++         6  6  6  6  6  7 13  6  0  0  0  0  0  0  0  0  0
%c M  cc GPS ccc cccc cccc cccc cccc ccccc ccccc ccccc ccccc
%c cc cc ccc ccc cccc cccc cccc cccc ccccc ccccc ccccc ccccc
%f  0.0000000  0.000000000  0.00000000000  0.000000000000000
%f  0.0000000  0.000000000  0.00000000000  0.000000000000000
%i    0    0    0    0      0      0      0      0         0
%i    0    0    0    0      0      0      0      0         0
/* INFORMATION & ANALYSIS CENTER (IAC)            RAPID DATA
/* S/V CLOCKS ARE ALIGNED TO GNSS TIME                      
/* G:C1WC2W R:C1PC2P E:C1XC5X C:C2IC6I J:C1CC2S             
/* PCV:IGS14_2134 OL/AL:FES2004  NONE     YN ORB:CoN CLK:CoN
*  2021 02 18  4 30  0.00000000
PC01 -34353.505255  24482.227102    225.545886   -702.172981
PC02   4472.719002  41895.139215   -703.016191    504.126473
PC03 -14695.879340  39505.407306  -1437.169754   -450.646911
PC04 -39658.952670  14343.166607   -434.951906   -409.643905
PC05  21840.014057  36051.929160   -559.609804   -779.179057
PC06 -22621.588708  31064.901279  17207.196729    101.736456
PC07 -10201.825795  35869.701203  20388.565198   -337.529806
PC08 -12588.754232  17643.791444 -36073.774458   -912.212328
PC09  -9895.113949  30036.116727  27942.506804    725.530586
PC10    -11.074714  41346.481858   9572.697965    -84.658975
PC11  14371.104417   9041.672590 -22071.458402   -916.708941
PC12  -4633.340916  17795.304737 -20955.060336    806.017181
PC13   3653.076249  24804.164055 -33730.023317    146.270346
PC14  10888.580515  19549.823927  16732.533677    162.662738
PC16 -21153.845709  31279.730513  18639.309974   -700.399772
PC19 -14593.069152  -9852.729679 -21619.799453    732.005213
PC20  -6215.413411 -25128.734263 -10373.872418   -916.899723
PC21  -6313.087350  26105.451789  -7592.460782   -843.766626
PC22 -14775.432871  11600.609344 -20639.996884   -883.931024
PC23  20662.796379  -2465.349244 -18592.393799   -875.976226
PC24  13660.156283  20270.567863  13421.693193   -762.958771
PC25  24965.675292  11684.368569  -4281.490804   -937.443527
PC26  -3655.724897  16388.677210  22273.578017    946.918017
PC27  14205.763539 -18727.824981  15042.848580    485.197038
PC28  25399.351288 -11434.786078  -1673.830778   -108.170675
PC29 -21776.580434  -1729.118570  17357.897142    353.947303
PC30  -5350.835793 -15099.300524  22851.072131    445.750625
PC32   6160.881143 -26122.168210   7648.595638   -896.517061
PC33  14666.944524   9884.647457  21595.657705   -959.352791
PC34   6102.565126  14773.824133 -22877.510467   -737.449762
PC35 -25045.089037  12102.885580   1966.645505   -412.711206
PC36 -24644.003490 -12487.245193   3976.145243   -754.068966
PC37   4841.994521 -15889.510939 -22414.969320   -866.164195
PC38 -10456.405193  21284.032806 -34837.984660    130.766527
PC39 -18814.346614  32656.154383  18776.782252     28.574860
PC40  -4990.377192  39929.973545  12859.072744    132.705119
PC41  14870.511936 -11325.647243  20772.112972   -929.894995
PC42   5885.712116  25470.775955   9824.371271   -876.615578
PC43  21562.732390   2273.800226 -17584.924657   -602.944830
PC44 -13663.498435  19244.280520 -14864.438759     44.454561
PC45 -20586.947275   2462.440688  18687.623590    365.183257
PC46 -14528.788022 -20127.455407 -12789.889156    400.189873
PC60      0.000000      0.000000      0.000000 999999.999999
PE01 -20560.896573  -9878.332922  18867.154810  -1048.502936
PE02  20541.888122   9732.592254 -18952.577099    199.224533
PE03  19077.573011  -1367.604876  22585.420726   -399.889196
PE04 -19369.505676  19969.598795 -10104.090464   -712.142961
PE05   7587.043082  18303.103481  21991.127269   -303.646104
PE07   8221.234927 -27107.697558  -8572.398024   -502.309059
PE08  19118.653948 -20314.492246   9883.737796   6045.311285
PE09  -8010.187225  27126.615226   8750.868443   5761.684718
PE11  -4722.809880  16091.008215 -24388.483623   6306.628007
PE12 -24354.727554   9582.000740 -13799.138418   5350.543269
PE13   5179.941642 -15999.456568  24371.537567    412.263459
PE14  24060.168328  -6666.485120 -15033.872758  -1333.821320
PE15  24309.497212  -9658.433275  13875.342516    828.748803
PE18 -20624.843779  19782.237566    252.352068  -1458.133271
PE19 -18143.970297  -1014.869900 -23361.404196    206.612307
PE21 -16657.106484 -24311.290566   2823.821308   -649.087844
PE24   2220.384795  24890.886835  15826.633508   -749.618455
PE25  16564.484844  24380.644491  -2652.576579   -526.677917
PE26 -17595.759516 -12875.715078  20030.048603   2135.273862
PE27  -2919.725612 -25143.045420 -15358.708600     27.513765
PE30  13059.904563 -10398.888730 -24455.993753   3172.156676
PE31 -12463.564051  11180.369204  24412.139566   -478.396664
PE33 -29107.682391  -2377.623246   4800.534936   -465.795903
PE36  16980.470934  12917.011734 -20510.266260    439.122769
PG01  17451.884596  13841.330731 -14966.908650    758.906514
PG02   6697.104004 -14529.470663  21866.348776   -578.005736
PG03  13099.390391  21736.209954   7936.082620    -86.009188
PG04   7607.589946  13757.514977  21405.032554   -180.986146
PG05  -2176.619018 -24589.075232   9407.952841    -34.003723
PG06  19812.938974  -7110.074309  16295.388472     -2.475812
PG07  25845.108802   6966.991926   2141.510171     62.616761
PG08   1346.595149  18491.143194 -18895.529657    -10.727920
PG09  16879.491795   2396.220508  20309.149021   -323.921139
PG10 -14206.655587   4814.837821 -21808.192760    -63.880599
PG11   9669.515525  13911.830913 -20855.855568    -21.511522
PG12  -9169.860045 -24663.287234   3922.106193     -2.664937
PG13   9587.464584 -20770.288203 -13525.469340     98.489876
PG14  15031.033222  -2931.334129 -21712.071007     97.546131
PG15  -4293.031778 -18458.998194 -18826.130587   -168.654425
PG16  -1827.955125  23827.890038  10834.595581   -281.789972
PG17  21216.538531 -12836.352526  -9072.580249    396.090732
PG18 -26111.587095  -4834.222335  -1403.649610    347.773692
PG19  20398.993283 -16821.605542  -2195.648330    -37.027873
PG20 -18424.218782  -7436.810093 -17805.412405    524.643162
PG21  10542.878232  14734.770830 -18837.962884     96.513043
PG22  10287.524770  24564.330523   -899.903384   -677.065106
PG23 -16872.396423  -6994.777847 -19318.627002    118.400693
PG24 -13086.446220 -15063.169077 -17951.587278      2.195368
PG25 -16140.455020 -14494.002991  15253.032278     82.735208
PG26  -7897.504194  17068.699242  18601.035277     46.509506
PG27 -10283.303405  22131.657092 -10175.982495    -78.486809
PG28  13563.545159  -6042.724095 -21475.331438    613.969182
PG29 -16182.962287  -3392.859346  20754.883123   -297.011871
PG30  24780.793898  -1629.409177  -9680.366020   -386.425581
PG31 -18174.994694   8564.195892  17522.051194   -100.755768
PG32 -20446.794270  14436.359720  -8530.778996     19.107099
PJ01 -21996.880172  31924.561386 -12009.860866   -341.817286
PJ02 -25737.310660  21345.731174  30582.585053      2.051926
PJ03 -35316.977674  21886.636924  -2721.927669     -0.833482
PJ07 -25395.663049  33647.728173     -0.891079      0.071964
PR01  -1328.772319 -22328.143806 -12249.622641     75.169482
PR02 -10163.632424  -4142.027658 -22987.847065    467.471399
PR03 -11815.235062  14372.764476 -17380.409688     30.990731
PR04  -6709.235442  24518.877285  -2045.734742     74.448195
PR05   2018.802148  20915.991090  14453.912843     66.690047
PR06  10733.118750   2766.007592  22964.320335    192.917633
PR07  11792.073341 -14969.144748  17018.100465    -42.466724
PR08   6755.983702 -24521.173004   2132.858106    -57.461442
PR09  20296.453842  11941.984532  -9874.031255    -21.188653
PR10  13823.856377  -1237.155221 -21396.953144    -66.465110
PR11  -1085.400828 -14356.385745 -21047.803516      3.232690
PR12 -15118.379444 -19035.695643  -7754.324416    205.926922
PR13 -20254.234943 -12281.881731   9451.254815    -50.864675
PR14 -13293.558887   1953.741552  21686.431762     61.118137
PR15   1125.371724  14664.816287  20853.124914    105.341623
PR16  15948.741465  18583.586327   6863.548000    -11.456874
PR17 -23721.475120   8767.948107  -3444.614851    401.035472
PR18 -12902.873537  12324.657625 -18181.605221     67.019794
PR19   3699.064155   9721.874186 -23284.887143   -132.477312
PR20  21278.445787    781.876626 -14069.406062   -433.613171
PR21  23351.645918  -9123.793759   4651.672839   -188.505580
PR22  12048.074087 -12266.907111  18876.691133    -98.458905
PR23 -11351.225948  -6844.354081  21789.848435    366.764517
PR24 -21713.082070   -416.352450  13408.762959     31.973276
EOF
